FLOCK 3P-75             
1 41979U 17008AH  17341.22280324  .00004114  00000-0  17472-3 0  9999
2 41979  97.4777  42.1239 0007138 317.0982  42.9697 15.23619669 44860
FLOCK 3P-70             
1 41980U 17008AJ  17341.22108215  .00003053  00000-0  13049-3 0  9996
2 41980  97.4779  42.1291 0007091 316.3702  43.6973 15.23608953 44715
FLOCK 3P-73             
1 41981U 17008AK  17341.16426466  .00001203  00000-0  53298-4 0  9997
2 41981  97.4784  42.0532 0007388 317.7007  42.3659 15.23568345 44831
FLOCK 3P-88             
1 41982U 17008AL  17341.21836980  .00004086  00000-0  17331-3 0  9999
2 41982  97.4776  42.1226 0007170 317.1208  42.9469 15.23661218 43815
FLOCK 3P-85             
1 41983U 17008AM  17341.13845074  .00003029  00000-0  12931-3 0  9992
2 41983  97.4781  42.0842 0007149 321.3167  38.7558 15.23648780 44702
FLOCK 3P-79             
1 41984U 17008AN  17341.13924600  .00004622  00000-0  19540-3 0  9999
2 41984  97.4779  42.0822 0006821 321.7942  38.2811 15.23709583 44705
FLOCK 3P-86             
1 41985U 17008AP  17341.14034610  .00004405  00000-0  18643-3 0  9996
2 41985  97.4778  42.0755 0006748 320.7943  39.2804 15.23695299 44697
FLOCK 3P-36             
1 41986U 17008AQ  17341.14308731  .00004702  00000-0  19886-3 0  9995
2 41986  97.4763  42.0022 0006483 318.5100  41.5644 15.23685309 44188
FLOCK 3P-30             
1 41987U 17008AR  17341.13378659  .00001783  00000-0  77354-4 0  9992
2 41987  97.4766  42.0153 0006474 320.0608  40.0152 15.23651806 44653
FLOCK 3P-34             
1 41988U 17008AS  17341.40895184  .00003865  00000-0  16388-3 0  9992
2 41988  97.4756  42.2449 0006446 314.1960  45.8746 15.23711979 44220
FLOCK 3P-35             
1 41989U 17008AT  17341.14887105  .00004348  00000-0  18421-3 0  9995
2 41989  97.4757  41.9782 0006667 315.0054  45.0642 15.23670075 44180
FLOCK 3P-33             
1 41990U 17008AU  17341.40675778  .00003849  00000-0  16329-3 0  9997
2 41990  97.4757  42.2523 0006263 315.6853  44.3881 15.23696305 44220
LEMUR-2-SATCHMO         
1 41991U 17008AV  17341.22043913  .00001352  00000-0  60810-4 0  9990
2 41991  97.4753  41.8770 0006681 320.1529  39.9216 15.22845276 44180
LEMUR-2-MIA-GRACE       
1 41992U 17008AW  17341.24322495  .00002144  00000-0  93453-4 0  9997
2 41992  97.4754  42.0099 0006559 320.2316  39.8439 15.23279357 44197
LEMUR-2-SMITA-SHARAD    
1 41993U 17008AX  17341.19956170  .00001489  00000-0  66327-4 0  9996
2 41993  97.4754  41.9069 0006632 320.2231  39.8518 15.23006807 44186
LEMUR-2-SPIRE-MINIONS   
1 41994U 17008AY  17341.18554063  .00002174  00000-0  94823-4 0  9995
2 41994  97.4751  41.9257 0006582 319.3733  40.7012 15.23239175 44189
LEMUR-2-RDEATON         
1 41995U 17008AZ  17341.25862061  .00001448  00000-0  64500-4 0  9996
2 41995  97.4754  41.9847 0007991 333.7411  26.3419 15.23061248 44877
LEMUR-2-NOGUECORREIG    
1 41996U 17008BA  17341.23741658  .00001666  00000-0  73294-4 0  9995
2 41996  97.4761  42.0201 0007882 334.1691  25.9151 15.23258637 44098
LEMUR-2-JOBANPUTRA      
1 41997U 17008BB  17341.41412634  .00001301  00000-0  57678-4 0  9999
2 41997  97.4762  42.2452 0007822 333.4294  26.6541 15.23390097 44217
LEMUR-2-TACHIKOMA       
1 41998U 17008BC  17341.19923420  .00001453  00000-0  64881-4 0  9997
2 41998  97.4753  41.9087 0007937 334.6091  25.4755 15.22960798 44105
BGUSAT                  
1 41999U 17008BD  17341.26045064  .00002830  00000-0  12076-3 0  9993
2 41999  97.4763  42.1599 0007696 335.1821  24.9045 15.23717090 44198
DIDO-2                  
1 42000U 17008BE  17341.27989862  .00001153  00000-0  52397-4 0  9999
2 42000  97.4751  41.9491 0007956 335.1972  24.8881 15.22776014 44190
FLOCK 3P-49             
1 42001U 17008BF  17341.13019388  .00001554  00000-0  67784-4 0  9993
2 42001  97.4764  42.0125 0007446 336.5531  23.5365 15.23669541 44708
FLOCK 3P-67             
1 42002U 17008BG  17341.13293745  .00002883  00000-0  12284-3 0  9995
2 42002  97.4757  42.0028 0007297 335.5290  24.5600 15.23759286 44864
FLOCK 3P-68             
1 42003U 17008BH  17341.13784584  .00004549  00000-0  19236-3 0  9997
2 42003  97.4756  41.9913 0007438 334.2832  25.8034 15.23708372 44506
FLOCK 3P-41             
1 42004U 17008BJ  17341.19132590  .00003396  00000-0  14457-3 0  9997
2 42004  97.4755  42.0669 0007238 336.6210  23.4696 15.23666557 44708
FLOCK 3P-45             
1 42005U 17008BK  17341.25985227  .00003227  00000-0  13710-3 0  9992
2 42005  97.4758  42.1390 0007194 336.4709  23.6198 15.23766106 44885
FLOCK 3P-48             
1 42006U 17008BL  17341.12880929  .00004682  00000-0  19801-3 0  9995
2 42006  97.4760  42.0143 0007160 338.0401  22.0528 15.23684655 44646
FLOCK 3P-43             
1 42007U 17008BM  17341.12740958  .00001078  00000-0  48022-4 0  9997
2 42007  97.4762  42.0048 0007082 338.0037  22.0895 15.23617565 44868
FLOCK 3P-42             
1 42008U 17008BN  17341.12676075  .00004630  00000-0  19618-3 0  9991
2 42008  97.4755  41.9994 0007132 337.8335  22.2592 15.23626482 44788
FLOCK 3P-61             
1 42009U 17008BP  17341.25679383  .00004234  00000-0  17984-3 0  9995
2 42009  97.4758  42.1380 0007090 339.8125  20.2831 15.23596474 44855
FLOCK 3P-40             
1 42010U 17008BQ  17341.11898217  .00001373  00000-0  60397-4 0  9999
2 42010  97.4755  41.9945 0007099 341.2474  18.8500 15.23570493 44096
FLOCK 3P-16             
1 42011U 17008BR  17341.23830562  .00001634  00000-0  71339-4 0  9990
2 42011  97.4756  42.1446 0006803 341.8793  18.2200 15.23565854 44051
FLOCK 3P-14             
1 42012U 17008BS  17341.24053724  .00002527  00000-0  10828-3 0  9996
2 42012  97.4760  42.1565 0006932 343.5125  16.5885 15.23685572 44678
FLOCK 3P-53             
1 42013U 17008BT  17341.24372127  .00001417  00000-0  62016-4 0  9992
2 42013  97.4752  42.1215 0006826 342.1074  17.9921 15.23690440 44678
FLOCK 3P-54             
1 42014U 17008BU  17341.11345409  .00001355  00000-0  59679-4 0  9994
2 42014  97.4758  42.0056 0006801 343.5073  16.5941 15.23554314 44861
PEASSS                  
1 42015U 17008BV  17341.22327128  .00001381  00000-0  60858-4 0  9995
2 42015  97.4744  42.1385 0006077 347.7789  12.3299 15.23498069 44682
AL-FARABI 1             
1 42016U 17008BW  17341.06309560  .00001928  00000-0  83108-4 0  9998
2 42016  97.4746  42.0582 0005953 349.2395  10.8714 15.23787892 44786
NAYIF-1 (EO-88)         
1 42017U 17008BX  17341.12573291  .00001946  00000-0  83796-4 0  9993
2 42017  97.4744  42.1249 0005941 349.4054  10.7057 15.23806781 44819
FLOCK 3P-23             
1 42018U 17008BY  17341.24366984  .00001313  00000-0  57935-4 0  9990
2 42018  97.4753  41.9749 0007396 311.0714  48.9883 15.23537293 43645
FLOCK 3P-76             
1 42019U 17008BZ  17341.21264753  .00004159  00000-0  17623-3 0  9999
2 42019  97.4781  42.1469 0007196 319.0000  41.0695 15.23685612 44705
FLOCK 3P-69             
1 42020U 17008CA  17341.21132964  .00004295  00000-0  18193-3 0  9993
2 42020  97.4781  42.1480 0006996 317.7517  42.3180 15.23684169 43590
FLOCK 3P-84             
1 42021U 17008CB  17341.15502270  .00004156  00000-0  17646-3 0  9996
2 42021  97.4776  42.0535 0007398 317.1902  42.8758 15.23617387 44702
FLOCK 3P-59             
1 42022U 17008CC  17341.22133906  .00002919  00000-0  12460-3 0  9995
2 42022  97.4757  42.0382 0006831 317.8468  42.2243 15.23694521 43737
FLOCK 3P-32             
1 42023U 17008CD  17341.22452573  .00002167  00000-0  93520-4 0  9992
2 42023  97.4759  42.0366 0006711 313.6548  46.4132 15.23594790 44878
FLOCK 3P-71             
1 42024U 17008CE  17341.17618309  .00003551  00000-0  15144-3 0  9991
2 42024  97.4781  42.0484 0007270 319.0057  41.0632 15.23571817 43736
FLOCK 3P-77             
1 42025U 17008CF  17341.21375755  .00004183  00000-0  17725-3 0  9991
2 42025  97.4778  42.1354 0007102 319.4323  40.6384 15.23685503 44710
FLOCK 3P-80             
1 42026U 17008CG  17341.13218842  .00004629  00000-0  19565-3 0  9995
2 42026  97.4778  42.0865 0006702 320.6426  39.4323 15.23718418 42843
FLOCK 3P-66             
1 42027U 17008CH  17341.39945849  .00001515  00000-0  66136-4 0  9996
2 42027  97.4764  42.2657 0007384 332.3018  27.7824 15.23686487 44853
FLOCK 3P-65             
1 42028U 17008CJ  17341.13502456  .00004519  00000-0  19111-3 0  9999
2 42028  97.4760  42.0058 0007290 334.1153  25.9719 15.23706761 44715
FLOCK 3P-50             
1 42029U 17008CK  17341.13144302  .00004685  00000-0  19807-3 0  9998
2 42029  97.4762  42.0186 0007182 336.8742  23.2170 15.23696432 44033
FLOCK 3P-52             
1 42030U 17008CL  17341.13299886  .00001790  00000-0  77644-4 0  9996
2 42030  97.4763  42.0037 0007281 335.6825  24.4067 15.23656074 44801
FLOCK 3P-46             
1 42031U 17008CM  17341.12794509  .00004346  00000-0  18407-3 0  9999
2 42031  97.4756  42.0027 0007214 336.9699  23.1213 15.23674109 44866
FLOCK 3P-47             
1 42032U 17008CN  17341.12959964  .00002584  00000-0  11072-3 0  9991
2 42032  97.4756  41.9991 0007191 337.7330  22.3594 15.23668042 44682
FLOCK 3P-44             
1 42033U 17008CP  17341.12308535  .00000936  00000-0  42082-4 0  9999
2 42033  97.4764  42.0163 0007248 340.4947  19.6011 15.23600856 43437
FLOCK 3P-64             
1 42034U 17008CQ  17341.25467371  .00001323  00000-0  58322-4 0  9993
2 42034  97.4759  42.1318 0007130 339.4061  20.6887 15.23568362 44877
FLOCK 3P-63             
1 42035U 17008CR  17340.59515159  .00001433  00000-0  62864-4 0  9996
2 42035  97.4759  41.4760 0007185 341.8732  18.2247 15.23595146 42740
FLOCK 3P-62             
1 42036U 17008CS  17341.16876038  .00003119  00000-0  13232-3 0  9994
2 42036  97.4754  42.0945 0007164 341.4991  18.5984 15.23841180 44035
FLOCK 3P-38             
1 42037U 17008CT  17341.25058072  .00001285  00000-0  56695-4 0  9998
2 42037  97.4759  42.1342 0006881 340.6403  19.4572 15.23583363 44823
